{"type": "FeatureCollection", "features": [ {"type": "Feature", "properties": {"norad_id": 41469, "name": "IRNSS-1G", "group": "gnss", "lat": 4.381938658231908, "lon": 168.9079159337308, "alt_km": 35785.341479109105, "timestamp": "2025-12-19T20:43:00.328380+00:00", "meta": {"OBJECT_NAME": "IRNSS-1G", "OBJECT_ID": "2016-027A", "EPOCH": "2025-12-19T07:01:56.235072", "MEAN_MOTION": 1.00276978, "ECCENTRICITY": 0.00025895, "INCLINATION": 4.7502, "RA_OF_ASC_NODE": 101.9284, "ARG_OF_PERICENTER": 330.5979, "MEAN_ANOMALY": 250.5847, "EPHEMERIS_TYPE": 0, "CLASSIFICATION_TYPE": "U", "NORAD_CAT_ID": 41469, "ELEMENT_SET_NO": 999, "REV_AT_EPOCH": 3537, "BSTAR": 0, "MEAN_MOTION_DOT": -3.13e-06, "MEAN_MOTION_DDOT": 0}, "tle": {"line1": "1 41469U 16027A   25353.29301198 -.00000313  00000+0  00000+0 0  9997", "line2": "2 41469   4.7502 101.9284 0002589 330.5979 250.5847  1.00276978 35378"}}, "geometry": {"type": "Point", "coordinates": [168.9079159337308, 4.381938658231908]}}, {"type": "Feature", "properties": {"norad_id": 41549, "name": "GSAT0211 (GALILEO 14)", "group": "gnss", "lat": -12.677855493350659, "lon": -142.37057100984063, "alt_km": 23213.928382507296, "timestamp": "2025-12-19T20:43:00.328392+00:00", "meta": {"OBJECT_NAME": "GSAT0211 (GALILEO 14)", "OBJECT_ID": "2016-030A", "EPOCH": "2025-12-14T00:32:28.498848", "MEAN_MOTION": 1.70473201, "ECCENTRICITY": 0.000407, "INCLINATION": 55.1518, "RA_OF_ASC_NODE": 226.7881, "ARG_OF_PERICENTER": 16.5595, "MEAN_ANOMALY": 343.5367, "EPHEMERIS_TYPE": 0, "CLASSIFICATION_TYPE": "U", "NORAD_CAT_ID": 41549, "ELEMENT_SET_NO": 999, "REV_AT_EPOCH": 5951, "BSTAR": 0, "MEAN_MOTION_DOT": 2.8e-07, "MEAN_MOTION_DDOT": 0}, "tle": {"line1": "1 41549U 16030A   25348.02255207  .00000028  00000+0  00000+0 0  9996", "line2": "2 41549  55.1518 226.7881 0004070  16.5595 343.5367  1.70473201 59512"}}, "geometry": {"type": "Point", "coordinates": [-142.37057100984063, -12.677855493350659]}}, {"type": "Feature", "properties": {"norad_id": 41550, "name": "GSAT0210 (GALILEO 13)", "group": "gnss", "lat": -5.387759058885489, "lon": 50.4050813536954, "alt_km": 23221.414092475537, "timestamp": "2025-12-19T20:43:00.328405+00:00", "meta": {"OBJECT_NAME": "GSAT0210 (GALILEO 13)", "OBJECT_ID": "2016-030B", "EPOCH": "2025-12-18T23:20:38.714784", "MEAN_MOTION": 1.70473668, "ECCENTRICITY": 7.917e-05, "INCLINATION": 55.1496, "RA_OF_ASC_NODE": 226.6499, "ARG_OF_PERICENTER": 227.6007, "MEAN_ANOMALY": 132.5002, "EPHEMERIS_TYPE": 0, "CLASSIFICATION_TYPE": "U", "NORAD_CAT_ID": 41550, "ELEMENT_SET_NO": 999, "REV_AT_EPOCH": 5959, "BSTAR": 0, "MEAN_MOTION_DOT": 6.5e-07, "MEAN_MOTION_DDOT": 0}, "tle": {"line1": "1 41550U 16030B   25352.97267031  .00000065  00000+0  00000+0 0  9996", "line2": "2 41550  55.1496 226.6499 0000791 227.6007 132.5002  1.70473668 59599"}}, "geometry": {"type": "Point", "coordinates": [50.4050813536954, -5.387759058885489]}}, {"type": "Feature", "properties": {"norad_id": 41586, "name": "BEIDOU-2 G7 (C03)", "group": "gnss", "lat": 1.7691512794641078, "lon": 149.95818349311867, "alt_km": 35781.621151946965, "timestamp": "2025-12-19T20:43:00.328417+00:00", "meta": {"OBJECT_NAME": "BEIDOU-2 G7 (C03)", "OBJECT_ID": "2016-037A", "EPOCH": "2025-12-19T01:48:17.629920", "MEAN_MOTION": 1.00272235, "ECCENTRICITY": 0.00051456, "INCLINATION": 1.772, "RA_OF_ASC_NODE": 67.8336, "ARG_OF_PERICENTER": 3.0969, "MEAN_ANOMALY": 154.5255, "EPHEMERIS_TYPE": 0, "CLASSIFICATION_TYPE": "U", "NORAD_CAT_ID": 41586, "ELEMENT_SET_NO": 999, "REV_AT_EPOCH": 508, "BSTAR": 0, "MEAN_MOTION_DOT": -3.3e-06, "MEAN_MOTION_DDOT": 0}, "tle": {"line1": "1 41586U 16037A   25353.07520405 -.00000330  00000+0  00000+0 0  9997", "line2": "2 41586   1.7720  67.8336 0005145   3.0969 154.5255  1.00272235  5080"}}, "geometry": {"type": "Point", "coordinates": [149.95818349311867, 1.7691512794641078]}}, {"type": "Feature", "properties": {"norad_id": 41589, "name": "EUTELSAT 117 WEST B (WAAS/PRN 131)", "group": "gnss", "lat": 0.009616036109050345, "lon": -77.5390320591795, "alt_km": 35784.18220710787, "timestamp": "2025-12-19T20:43:00.328430+00:00", "meta": {"OBJECT_NAME": "EUTELSAT 117 WEST B (WAAS/PRN 131)", "OBJECT_ID": "2016-038B", "EPOCH": "2025-12-19T00:43:26.441760", "MEAN_MOTION": 1.00272207, "ECCENTRICITY": 4.142e-05, "INCLINATION": 0.0149, "RA_OF_ASC_NODE": 154.1508, "ARG_OF_PERICENTER": 133.0163, "MEAN_ANOMALY": 54.5907, "EPHEMERIS_TYPE": 0, "CLASSIFICATION_TYPE": "U", "NORAD_CAT_ID": 41589, "ELEMENT_SET_NO": 999, "REV_AT_EPOCH": 3485, "BSTAR": 0, "MEAN_MOTION_DOT": 1.3e-07, "MEAN_MOTION_DDOT": 0}, "tle": {"line1": "1 41589U 16038B   25353.03016715  .00000013  00000+0  00000+0 0  9998", "line2": "2 41589   0.0149 154.1508 0000414 133.0163  54.5907  1.00272207 34854"}}, "geometry": {"type": "Point", "coordinates": [-77.5390320591795, 0.009616036109050345]}}, {"type": "Feature", "properties": {"norad_id": 41859, "name": "GSAT0207 (GALILEO 15)", "group": "gnss", "lat": 12.96373507530058, "lon": 115.18138906889466, "alt_km": 23216.868490871446, "timestamp": "2025-12-19T20:43:00.328442+00:00", "meta": {"OBJECT_NAME": "GSAT0207 (GALILEO 15)", "OBJECT_ID": "2016-069A", "EPOCH": "2025-12-19T06:01:13.799424", "MEAN_MOTION": 1.70474539, "ECCENTRICITY": 0.00023551, "INCLINATION": 55.3858, "RA_OF_ASC_NODE": 106.07, "ARG_OF_PERICENTER": 318.8542, "MEAN_ANOMALY": 41.0896, "EPHEMERIS_TYPE": 0, "CLASSIFICATION_TYPE": "U", "NORAD_CAT_ID": 41859, "ELEMENT_SET_NO": 999, "REV_AT_EPOCH": 5633, "BSTAR": 0, "MEAN_MOTION_DOT": -6e-08, "MEAN_MOTION_DDOT": 0}, "tle": {"line1": "1 41859U 16069A   25353.25085416 -.00000006  00000+0  00000+0 0  9993", "line2": "2 41859  55.3858 106.0700 0002355 318.8542  41.0896  1.70474539 56338"}}, "geometry": {"type": "Point", "coordinates": [115.18138906889466, 12.96373507530058]}}, {"type": "Feature", "properties": {"norad_id": 41860, "name": "GSAT0212 (GALILEO 16)", "group": "gnss", "lat": 52.41959968519821, "lon": -137.6424917043565, "alt_km": 23215.344920962016, "timestamp": "2025-12-19T20:43:00.328455+00:00", "meta": {"OBJECT_NAME": "GSAT0212 (GALILEO 16)", "OBJECT_ID": "2016-069B", "EPOCH": "2025-12-18T12:25:48.697536", "MEAN_MOTION": 1.70474692, "ECCENTRICITY": 0.00020646, "INCLINATION": 55.3831, "RA_OF_ASC_NODE": 106.0857, "ARG_OF_PERICENTER": 21.766, "MEAN_ANOMALY": 338.2025, "EPHEMERIS_TYPE": 0, "CLASSIFICATION_TYPE": "U", "NORAD_CAT_ID": 41860, "ELEMENT_SET_NO": 999, "REV_AT_EPOCH": 5657, "BSTAR": 0, "MEAN_MOTION_DOT": -8e-08, "MEAN_MOTION_DDOT": 0}, "tle": {"line1": "1 41860U 16069B   25352.51792474 -.00000008  00000+0  00000+0 0  9994", "line2": "2 41860  55.3831 106.0857 0002064  21.7660 338.2025  1.70474692 56573"}}, "geometry": {"type": "Point", "coordinates": [-137.6424917043565, 52.41959968519821]}}, {"type": "Feature", "properties": {"norad_id": 41861, "name": "GSAT0213 (GALILEO 17)", "group": "gnss", "lat": -45.493447176246086, "lon": -29.386419936401026, "alt_km": 23221.626239795856, "timestamp": "2025-12-19T20:43:00.328466+00:00", "meta": {"OBJECT_NAME": "GSAT0213 (GALILEO 17)", "OBJECT_ID": "2016-069C", "EPOCH": "2025-12-17T17:05:43.699776", "MEAN_MOTION": 1.70474994, "ECCENTRICITY": 0.000259, "INCLINATION": 55.385, "RA_OF_ASC_NODE": 106.1156, "ARG_OF_PERICENTER": 282.1972, "MEAN_ANOMALY": 77.7328, "EPHEMERIS_TYPE": 0, "CLASSIFICATION_TYPE": "U", "NORAD_CAT_ID": 41861, "ELEMENT_SET_NO": 999, "REV_AT_EPOCH": 5642, "BSTAR": 0, "MEAN_MOTION_DOT": -9e-08, "MEAN_MOTION_DDOT": 0}, "tle": {"line1": "1 41861U 16069C   25351.71231134 -.00000009  00000+0  00000+0 0  9998", "line2": "2 41861  55.3850 106.1156 0002590 282.1972  77.7328  1.70474994 56421"}}, "geometry": {"type": "Point", "coordinates": [-29.386419936401026, -45.493447176246086]}}, {"type": "Feature", "properties": {"norad_id": 41862, "name": "GSAT0214 (GALILEO 18)", "group": "gnss", "lat": 23.94525127613811, "lon": -91.79684347046806, "alt_km": 23222.63072301935, "timestamp": "2025-12-19T20:43:00.328478+00:00", "meta": {"OBJECT_NAME": "GSAT0214 (GALILEO 18)", "OBJECT_ID": "2016-069D", "EPOCH": "2025-12-17T20:35:58.649280", "MEAN_MOTION": 1.70474854, "ECCENTRICITY": 0.00015422, "INCLINATION": 55.383, "RA_OF_ASC_NODE": 106.1044, "ARG_OF_PERICENTER": 289.1766, "MEAN_ANOMALY": 70.7658, "EPHEMERIS_TYPE": 0, "CLASSIFICATION_TYPE": "U", "NORAD_CAT_ID": 41862, "ELEMENT_SET_NO": 999, "REV_AT_EPOCH": 5655, "BSTAR": 0, "MEAN_MOTION_DOT": -9e-08, "MEAN_MOTION_DDOT": 0}, "tle": {"line1": "1 41862U 16069D   25351.85831770 -.00000009  00000+0  00000+0 0  9996", "line2": "2 41862  55.3830 106.1044 0001542 289.1766  70.7658  1.70474854 56558"}}, "geometry": {"type": "Point", "coordinates": [-91.79684347046806, 23.94525127613811]}}, {"type": "Feature", "properties": {"norad_id": 42709, "name": "SES-15 (WAAS/PRN 133)", "group": "gnss", "lat": -0.04383198944375507, "lon": -89.70084844517605, "alt_km": 35784.87643853182, "timestamp": "2025-12-19T20:43:00.328489+00:00", "meta": {"OBJECT_NAME": "SES-15 (WAAS/PRN 133)", "OBJECT_ID": "2017-026A", "EPOCH": "2025-12-18T22:57:14.116032", "MEAN_MOTION": 1.00274753, "ECCENTRICITY": 5.745e-05, "INCLINATION": 0.0175, "RA_OF_ASC_NODE": 346.8441, "ARG_OF_PERICENTER": 200.6148, "MEAN_ANOMALY": 115.4976, "EPHEMERIS_TYPE": 0, "CLASSIFICATION_TYPE": "U", "NORAD_CAT_ID": 42709, "ELEMENT_SET_NO": 999, "REV_AT_EPOCH": 562, "BSTAR": 0, "MEAN_MOTION_DOT": 8.4e-07, "MEAN_MOTION_DDOT": 0}, "tle": {"line1": "1 42709U 17026A   25352.95641338  .00000084  00000+0  00000+0 0  9994", "line2": "2 42709   0.0175 346.8441 0000574 200.6148 115.4976  1.00274753  5629"}}, "geometry": {"type": "Point", "coordinates": [-89.70084844517605, -0.04383198944375507]}}]}